STARLINK-37956          
1 69711U 26147H   26197.61982278  .00215295  00000+0  10973-2 0  9997
2 69711  97.2821 234.1032 0001000 114.4664 245.6709 15.80814776  4089
STARLINK-38043          
1 69712U 26147J   26197.61907021  .00155118  00000+0  79404-3 0  9993
2 69712  97.2822 234.1032 0001074 130.2483 229.8879 15.80876957  4088
STARLINK-38020          
1 69713U 26147K   26197.61831735  .00211848  00000+0  10799-2 0  9996
2 69713  97.2817 234.1044 0000980 156.9558 203.1754 15.80820807  4089
STARLINK-38059          
1 69714U 26147L   26197.61757227  .00257586  00000+0  12987-2 0  9990
2 69714  97.2816 234.1055 0001311  63.5923 296.5480 15.80942116  4089
STARLINK-38061          
1 69715U 26147M   26197.61682045  .00198746  00000+0  10143-2 0  9990
2 69715  97.2818 234.1068 0001431  83.7133 276.4298 15.80828680  4089
STARLINK-38060          
1 69716U 26147N   26197.61606778  .00220155  00000+0  11211-2 0  9997
2 69716  97.2824 234.1086 0001280  97.8670 262.2744 15.80820742  4081
STARLINK-38040          
1 69717U 26147P   26197.61531774  .00212899  00000+0  10802-2 0  9992
2 69717  97.2812 234.1074 0001298  82.6874 277.4542 15.80919606  4085
STARLINK-37989          
1 69718U 26147Q   26197.83335647 -.00076263  00000+0 -40050-3 0  9992
2 69718  97.2820 234.3426 0001378  86.5801  77.8655 15.80836437  4098
STARLINK-38039          
1 69719U 26147R   26197.55051036  .00304731  00000+0  15325-2 0  9997
2 69719  97.2815 234.0432 0000922  74.3091 285.8279 15.80876466  4074
STARLINK-38003          
1 69720U 26147S   26197.61306479  .00188606  00000+0  96385-3 0  9997
2 69720  97.2810 234.1112 0001968  85.5686 274.5807 15.80824496  4081
STARLINK-38014          
1 69721U 26147T   26197.61231619  .00209904  00000+0  10694-2 0  9994
2 69721  97.2821 234.1125 0002920  72.8203 287.3385 15.80835106  4084
STARLINK-37915          
1 69722U 26147U   26197.61155421  .00179082  00000+0  91627-3 0  9990
2 69722  97.2822 234.1128 0000654 147.8622 212.2686 15.80824115  4088
STARLINK-38007          
1 69723U 26147V   26197.83335647 -.00074942  00000+0 -39350-3 0  9991
2 69723  97.2825 234.3429 0001435  88.3301  79.6054 15.80836101  4092
STARLINK-38008          
1 69724U 26147W   26197.67335294  .00128832  00000+0  66172-3 0  9990
2 69724  97.2826 234.1817 0000872 110.9737 249.1625 15.80873296  4096
STARLINK-38021          
1 69725U 26147X   26197.60930311  .00230485  00000+0  11717-2 0  9997
2 69725  97.2826 234.1170 0001093  83.0103 277.1289 15.80831255  4087
STARLINK-38015          
1 69726U 26147Y   26197.60855770  .00150183  00000+0  77061-3 0  9994
2 69726  97.2828 234.1177 0002623  80.4055 279.7509 15.80835351  4088
STARLINK-38010          
1 69727U 26147Z   26197.63640536  .00179227  00000+0  11771-2 0  9995
2 69727  97.2830 234.0790 0001351  94.4133 265.7287 15.75196253  4084
SXM-11                  
1 69728U 26148A   26197.74047000  .00000000  00000+0  00000+0 0  9998
2 69728   0.1077 265.1583 0001921 180.7019 354.7644  1.00269793   334
HAIYANG-2E              
1 69737U 26149A   26194.63575019 -.00000091  00000+0 -45287-4 0  9993
2 69737  99.3454 201.5813 0001579  93.5996 266.5337 13.79314717  1614
CZ-4B R/B               
1 69738U 26149B   26194.65226973  .00000049  00000+0  33597-4 0  9990
2 69738  99.3217 202.5607 0198196 334.5310  24.6204 14.30067210  1914
STARLINK-38033          
1 69739U 26150A   26197.54049256  .00247838  00000+0  12536-2 0  9998
2 69739  97.2840  35.9792 0000924 101.0827 259.0545 15.80896078  3538
STARLINK-38076          
1 69740U 26150B   26197.50045412  .00129995  00000+0  85785-3 0  9996
2 69740  97.2842  35.8804 0001711 103.6720 256.4736 15.75226217  3528
STARLINK-38074          
1 69741U 26150C   26197.53791030  .00339413  00000+0  16961-2 0  9991
2 69741  97.2831  35.9830 0000709 136.4298 223.7026 15.80925485  3536
STARLINK-38041          
1 69742U 26150D   26197.47310728  .00285579  00000+0  13684-2 0  9998
2 69742  97.2825  35.9177 0002987 257.1504 102.9431 15.81977834  3528
STARLINK-38087          
1 69743U 26150E   26197.83335647 -.01902152  00000+0 -12252-1 0  9991
2 69743  97.2847  36.2979 0001679  83.2876 164.5280 15.79172659  3563
STARLINK-38078          
1 69744U 26150F   26197.53565117  .00326043  00000+0  16302-2 0  9993
2 69744  97.2826  35.9847 0001581 120.8834 239.2590 15.80948587  3539
STARLINK-38047          
1 69745U 26150G   26195.50921554  .00139688  00000+0  71675-3 0  9992
2 69745  97.2820  33.8437 0003666 125.3440 234.8171 15.80859566  3214
STARLINK-38046          
1 69746U 26150H   26197.78613455  .00241764  00000+0  12230-2 0  9993
2 69746  97.2837  36.2575 0001229  69.0377 291.1022 15.80910693  3578
STARLINK-38067          
1 69747U 26150J   26197.48880889  .00101986  00000+0  67549-3 0  9993
2 69747  97.2825  35.8962 0002220  78.4575 281.6939 15.75222966  3526
STARLINK-37988          
1 69748U 26150K   26197.55056992  .00121638  00000+0  80440-3 0  9993
2 69748  97.2839  35.9650 0001098  73.3429 286.7956 15.75202152  3532
