OBJECT_NAME,OBJECT_ID,EPOCH,MEAN_MOTION,ECCENTRICITY,INCLINATION,RA_OF_ASC_NODE,ARG_OF_PERICENTER,MEAN_ANOMALY,EPHEMERIS_TYPE,CLASSIFICATION_TYPE,NORAD_CAT_ID,ELEMENT_SET_NO,REV_AT_EPOCH,BSTAR,MEAN_MOTION_DOT,MEAN_MOTION_DDOT
STARLINK-37956,2026-147H,2026-07-16T14:52:32.688192,15.80814776,.0001,97.2821,234.1032,114.4664,245.6709,0,U,69711,999,408,.10973E-2,.215295E-2,0
STARLINK-38043,2026-147J,2026-07-16T14:51:27.666144,15.80876957,.0001074,97.2822,234.1032,130.2483,229.8879,0,U,69712,999,408,.79404E-3,.155118E-2,0
STARLINK-38020,2026-147K,2026-07-16T14:50:22.619040,15.80820807,.000098,97.2817,234.1044,156.9558,203.1754,0,U,69713,999,408,.10799E-2,.211848E-2,0
STARLINK-38059,2026-147L,2026-07-16T14:49:18.244128,15.80942116,.0001311,97.2816,234.1055,63.5923,296.5480,0,U,69714,999,408,.12987E-2,.257586E-2,0
STARLINK-38061,2026-147M,2026-07-16T14:48:13.286880,15.80828680,.0001431,97.2818,234.1068,83.7133,276.4298,0,U,69715,999,408,.10143E-2,.198746E-2,0
STARLINK-38060,2026-147N,2026-07-16T14:47:08.256192,15.80820742,.000128,97.2824,234.1086,97.8670,262.2744,0,U,69716,999,408,.11211E-2,.220155E-2,0
STARLINK-38040,2026-147P,2026-07-16T14:46:03.452736,15.80919606,.0001298,97.2812,234.1074,82.6874,277.4542,0,U,69717,999,408,.10802E-2,.212899E-2,0
STARLINK-37989,2026-147Q,2026-07-16T20:00:01.999008,15.80836437,.0001378,97.2820,234.3426,86.5801,77.8655,0,U,69718,999,409,-.4005E-3,-.76263E-3,0
STARLINK-38039,2026-147R,2026-07-16T13:12:44.095104,15.80876466,.0000922,97.2815,234.0432,74.3091,285.8279,0,U,69719,999,407,.15325E-2,.304731E-2,0
STARLINK-38003,2026-147S,2026-07-16T14:42:48.797856,15.80824496,.0001968,97.2810,234.1112,85.5686,274.5807,0,U,69720,999,408,.96385E-3,.188606E-2,0
STARLINK-38014,2026-147T,2026-07-16T14:41:44.118816,15.80835106,.000292,97.2821,234.1125,72.8203,287.3385,0,U,69721,999,408,.10694E-2,.209904E-2,0
STARLINK-37915,2026-147U,2026-07-16T14:40:38.283744,15.80824115,.0000654,97.2822,234.1128,147.8622,212.2686,0,U,69722,999,408,.91627E-3,.179082E-2,0
STARLINK-38007,2026-147V,2026-07-16T20:00:01.999008,15.80836101,.0001435,97.2825,234.3429,88.3301,79.6054,0,U,69723,999,409,-.3935E-3,-.74942E-3,0
STARLINK-38008,2026-147W,2026-07-16T16:09:37.694016,15.80873296,.0000872,97.2826,234.1817,110.9737,249.1625,0,U,69724,999,409,.66172E-3,.128832E-2,0
STARLINK-38021,2026-147X,2026-07-16T14:37:23.788704,15.80831255,.0001093,97.2826,234.1170,83.0103,277.1289,0,U,69725,999,408,.11717E-2,.230485E-2,0
STARLINK-38015,2026-147Y,2026-07-16T14:36:19.385280,15.80835351,.0002623,97.2828,234.1177,80.4055,279.7509,0,U,69726,999,408,.77061E-3,.150183E-2,0
STARLINK-38010,2026-147Z,2026-07-16T15:16:25.423104,15.75196253,.0001351,97.2830,234.0790,94.4133,265.7287,0,U,69727,999,408,.11771E-2,.179227E-2,0
SXM-11,2026-148A,2026-07-16T17:46:16.608000,1.00269793,.0001921,0.1077,265.1583,180.7019,354.7644,0,U,69728,999,33,0,0,0
HAIYANG-2E,2026-149A,2026-07-13T15:15:28.816416,13.79314717,.0001579,99.3454,201.5813,93.5996,266.5337,0,U,69737,999,161,-.45287E-4,-.91E-6,0
CZ-4B R/B,2026-149B,2026-07-13T15:39:16.104672,14.30067210,.01981969,99.3217,202.5607,334.5310,24.6204,0,U,69738,999,191,.33596551E-4,.49E-6,0
STARLINK-38033,2026-150A,2026-07-16T12:58:18.557184,15.80896078,.0000924,97.2840,35.9792,101.0827,259.0545,0,U,69739,999,353,.12536E-2,.247838E-2,0
STARLINK-38076,2026-150B,2026-07-16T12:00:39.235968,15.75226217,.0001711,97.2842,35.8804,103.6720,256.4736,0,U,69740,999,352,.85785E-3,.129995E-2,0
STARLINK-38074,2026-150C,2026-07-16T12:54:35.449920,15.80925485,.0000709,97.2831,35.9830,136.4298,223.7026,0,U,69741,999,353,.16961E-2,.339413E-2,0
STARLINK-38041,2026-150D,2026-07-16T11:21:16.468992,15.81977834,.0002987,97.2825,35.9177,257.1504,102.9431,0,U,69742,999,352,.13684E-2,.285579E-2,0
STARLINK-38087,2026-150E,2026-07-16T20:00:01.999008,15.79172659,.0001679,97.2847,36.2979,83.2876,164.5280,0,U,69743,999,356,-.12252E-1,-.1902152E-1,0
STARLINK-38078,2026-150F,2026-07-16T12:51:20.261088,15.80948587,.0001581,97.2826,35.9847,120.8834,239.2590,0,U,69744,999,353,.16302E-2,.326043E-2,0
STARLINK-38047,2026-150G,2026-07-14T12:13:16.222656,15.80859566,.00036662,97.2820,33.8437,125.3440,234.8171,0,U,69745,999,321,.71675095E-3,.139688E-2,0
STARLINK-38046,2026-150H,2026-07-16T18:52:02.025120,15.80910693,.0001229,97.2837,36.2575,69.0377,291.1022,0,U,69746,999,357,.1223E-2,.241764E-2,0
STARLINK-38067,2026-150J,2026-07-16T11:43:53.088096,15.75222966,.000222,97.2825,35.8962,78.4575,281.6939,0,U,69747,999,352,.67549E-3,.101986E-2,0
STARLINK-37988,2026-150K,2026-07-16T13:12:49.241088,15.75202152,.0001098,97.2839,35.9650,73.3429,286.7956,0,U,69748,999,353,.8044E-3,.121638E-2,0
